NORAD_CAT_ID,OBJECT_NAME,OBJECT_TYPE,EPOCH,MEAN_MOTION,ECCENTRICITY,INCLINATION,RA_OF_ASC_NODE,ARG_OF_PERICENTER,MEAN_ANOMALY,BSTAR,MEAN_MOTION_DOT,MEAN_MOTION_DDOT,TLE_LINE0,TLE_LINE1,TLE_LINE2,SEMIMAJOR_AXIS,PERIOD,APOGEE,PERIGEE,DECAYED
53400.0,STARLINK-4520,PAYLOAD,2022-11-26 18:56:22,15.08844539,0.0001978,53.2197,106.1816,44.4826,315.6325,3.724e-05,3.05e-06,0.0,0 STARLINK-4520,1 53400U 22097N   22330.78915267  .00000305  00000-0  37240-4 0  9995,2 53400  53.2197 106.1816 0001978  44.4826 315.6325 15.08844539 17030,6917.8669999999975,95.437,541.1,538.363,0.0
53400.0,STARLINK-4520,PAYLOAD,2022-11-27 09:14:51,15.08839862,0.000208,53.22,103.505,48.0811,312.0358,7.2305e-05,8.63e-06,0.0,0 STARLINK-4520,1 53400U 22097N   22331.38531529  .00000863  00000-0  72305-4 0  9997,2 53400  53.2200 103.5050 0002080  48.0811 312.0358 15.08839862 17619,6917.880999999999,95.438,541.185,538.307,0.0
53400.0,STARLINK-4520,PAYLOAD,2022-11-27 18:47:10,15.08836514,0.0002066,53.2207,101.721,48.1405,311.9763,-1.7791e-05,-5.71e-06,0.0,0 STARLINK-4520,1 53400U 22097N   22331.78275973 -.00000571  00000-0 -17791-4 0  9995,2 53400  53.2207 101.7210 0002066  48.1405 311.9763 15.08836514 17189,6917.891,95.438,541.185,538.327,0.0
53400.0,STARLINK-4520,PAYLOAD,2022-11-28 15:27:11,15.08837752,0.0002112,53.2205,97.8552,47.119,312.998,-1.1364000000000003e-05,-4.69e-06,0.0,0 STARLINK-4520,1 53400U 22097N   22332.64387954 -.00000469  00000-0 -11364-4 0  9990,2 53400  53.2205  97.8552 0002112  47.1190 312.9980 15.08837752 17809,6917.887,95.438,541.2130000000002,538.2909999999998,0.0
53400.0,STARLINK-4520,PAYLOAD,2022-11-29 00:59:30,15.088348000000002,0.0002034,53.2202,96.0708,41.1104,319.0041,2.7706e-05,1.53e-06,0.0,0 STARLINK-4520,1 53400U 22097N   22333.04132107  .00000153  00000-0  27706-4 0  9998,2 53400  53.2202  96.0708 0002034  41.1104 319.0041 15.08834800 17371,6917.896,95.438,541.168,538.354,0.0
53400.0,STARLINK-4520,PAYLOAD,2022-11-29 07:21:01,15.0885557,0.0002011,53.2196,94.8807,36.3271,323.7858,-0.00022939,-3.939e-05,0.0,0 STARLINK-4520,1 53400U 22097N   22333.30627272 -.00003939  00000-0 -22939-3 0  9998,2 53400  53.2196  94.8807 0002011  36.3271 323.7858 15.08855570 17415,6917.833000000001,95.437,541.089,538.307,0.0
53400.0,STARLINK-4520,PAYLOAD,2022-11-29 15:17:58,15.08850724,0.0001949,53.2197,93.394,36.2587,323.8537,-0.00014386,-2.578e-05,0.0,0 STARLINK-4520,1 53400U 22097N   22333.63747696 -.00002578  00000-0 -14386-3 0  9992,2 53400  53.2197  93.3940 0001949  36.2587 323.8537 15.08850724 17462,6917.848000000001,95.437,541.061,538.364,0.0
53400.0,STARLINK-4520,PAYLOAD,2022-11-30 08:47:12,15.0883275,0.0002051,53.2195,90.1243,40.5013,319.6131,8.1823e-05,1.014e-05,0.0,0 STARLINK-4520,1 53400U 22097N   22334.36612221  .00001014  00000-0  81823-4 0  9991,2 53400  53.2195  90.1243 0002051  40.5013 319.6131 15.08832750 17572,6917.903,95.438,541.186,538.349,0.0
53400.0,STARLINK-4520,PAYLOAD,2022-11-30 16:44:08,15.08836946,0.0002083,53.2194,88.6374,39.7945,320.3199,0.00010507,1.384e-05,0.0,0 STARLINK-4520,1 53400U 22097N   22334.69732010  .00001384  00000-0  10507-3 0  9996,2 53400  53.2194  88.6374 0002083  39.7945 320.3199 15.08836946 18112,6917.89,95.438,541.196,538.314,0.0
53400.0,STARLINK-4520,PAYLOAD,2022-12-01 16:34:55,15.08843674,0.000242,53.222,84.1783,43.7717,316.3467,3.6506e-05,2.93e-06,0.0,0 STARLINK-4520,1 53400U 22097N   22335.69091987  .00000293  00000-0  36506-4 0  9994,2 53400  53.2220  84.1783 0002420  43.7717 316.3467 15.08843674 17774,6917.869000000002,95.437,541.408,538.06,0.0
53400.0,STARLINK-4520,PAYLOAD,2022-12-02 13:14:56,15.08842272,0.0002097,53.221,80.3118,40.854,319.2609,3.4506e-06,-2.33e-06,0.0,0 STARLINK-4520,1 53400U 22097N   22336.55204117 -.00000233  00000-0  34506-5 0  9995,2 53400  53.2210  80.3118 0002097  40.8540 319.2609 15.08842272 18397,6917.873000000001,95.437,541.189,538.288,0.0
53400.0,STARLINK-4520,PAYLOAD,2022-12-03 00:22:38,15.08839262,0.0002457,53.2215,78.2299,41.7059,318.4120000000001,7.7548e-05,9.46e-06,0.0,0 STARLINK-4520,1 53400U 22097N   22337.01572156  .00000946  00000-0  77548-4 0  9990,2 53400  53.2215  78.2299 0002457  41.7059 318.4120 15.08839262 17970,6917.8830000000025,95.438,541.447,538.048,0.0
53400.0,STARLINK-4520,PAYLOAD,2022-12-03 13:05:43,15.08838842,0.0002232,53.2215,75.8512,48.0674,312.0508,-4.4872e-05,-1.002e-05,0.0,0 STARLINK-4520,1 53400U 22097N   22337.54564607 -.00001002  00000-0 -44872-4 0  9990,2 53400  53.2215  75.8512 0002232  48.0674 312.0508 15.08838842 18542,6917.884,95.438,541.293,538.205,0.0
53400.0,STARLINK-4520,PAYLOAD,2022-12-04 06:34:58,15.08839568,0.0002163,53.2204,72.5807,44.8032,315.3135,3.7696e-05,3.12e-06,0.0,0 STARLINK-4520,1 53400U 22097N   22338.27428356  .00000312  00000-0  37696-4 0  9998,2 53400  53.2204  72.5807 0002163  44.8032 315.3135 15.08839568 18162,6917.882,95.438,541.243,538.25,0.0
53400.0,STARLINK-4520,PAYLOAD,2022-12-04 12:56:30,15.088405800000002,0.0002239,53.2202,71.3915,45.7814,314.3362,1.7574e-05,-9e-08,0.0,0 STARLINK-4520,1 53400U 22097N   22338.53924376 -.00000009  00000-0  17574-4 0  9997,2 53400  53.2202  71.3915 0002239  45.7814 314.3362 15.08840580 18694,6917.879,95.438,541.293,538.195,0.0
53400.0,STARLINK-4520,PAYLOAD,2022-12-04 17:42:39,15.08842147,0.0002291,53.2203,70.4998,45.7118,314.4062,0.00010832,1.436e-05,0.0,0 STARLINK-4520,1 53400U 22097N   22338.73796171  .00001436  00000-0  10832-3 0  9992,2 53400  53.2203  70.4998 0002291  45.7118 314.4062 15.08842147 18724,6917.874,95.437,541.3240000000002,538.154,0.0
53400.0,STARLINK-4520,PAYLOAD,2022-12-05 12:47:17,15.088362900000002,0.0002236,53.2202,66.9325,44.2859,315.8311,0.00031933,4.797e-05,0.0,0 STARLINK-4520,1 53400U 22097N   22339.53284078  .00004797  00000-0  31933-3 0  9997,2 53400  53.2202  66.9325 0002236  44.2859 315.8311 15.08836290 18355,6917.892,95.438,541.304,538.21,0.0
53400.0,STARLINK-4520,PAYLOAD,2022-12-05 17:33:27,15.0883063,0.0002187,53.2203,66.0412,40.8069,319.3087,0.00023746,3.492e-05,0.0,0 STARLINK-4520,1 53400U 22097N   22339.73156395  .00003492  00000-0  23746-3 0  9993,2 53400  53.2203  66.0412 0002187  40.8069 319.3087 15.08830630 18872,6917.909000000002,95.438,541.2869999999998,538.261,0.0
53400.0,STARLINK-4520,PAYLOAD,2022-12-06 12:38:05,15.08832821,0.0002247,53.2211,62.47,41.6033,318.513,-1.6735e-05,-5.55e-06,0.0,0 STARLINK-4520,1 53400U 22097N   22340.52644847 -.00000555  00000-0 -16735-4 0  9996,2 53400  53.2211  62.4700 0002247  41.6033 318.5130 15.08832821 18502,6917.901999999999,95.438,541.322,538.2130000000002,0.0
53400.0,STARLINK-4520,PAYLOAD,2022-12-07 15:39:38,15.08831223,0.0002234,53.2212,57.4168,34.4261,325.6876,-8.5197e-06,-4.24e-06,0.0,0 STARLINK-4520,1 53400U 22097N   22341.65253382 -.00000424  00000-0 -85197-5 0  9995,2 53400  53.2212  57.4168 0002234  34.4261 325.6876 15.08831223 19168,6917.906999999997,95.438,541.318,538.227,0.0
53400.0,STARLINK-4520,PAYLOAD,2022-12-07 22:01:10,15.08845839,0.0002096,53.2224,56.2287,31.3783,328.7334,-9.8018e-06,-4.44e-06,0.0,0 STARLINK-4520,1 53400U 22097N   22341.91748455 -.00000444  00000-0 -98018-5 0  9992,2 53400  53.2224  56.2287 0002096  31.3783 328.7334 15.08845839 18712,6917.863,95.437,541.178,538.278,0.0
53400.0,STARLINK-4520,PAYLOAD,2022-12-08 04:22:43,15.08841979,0.000183,53.2213,55.0385,24.7604,335.3476,8.6035e-05,1.081e-05,0.0,0 STARLINK-4520,1 53400U 22097N   22342.18244343  .00001081  00000-0  86035-4 0  9990,2 53400  53.2213  55.0385 0001830  24.7604 335.3476 15.08841979 19240,6917.874,95.437,541.005,538.4730000000002,0.0
53400.0,STARLINK-4520,PAYLOAD,2022-12-08 12:19:38,15.08848117,0.0002236,53.2204,53.5515,35.3018,324.8122,0.00018364,2.636e-05,0.0,0 STARLINK-4520,1 53400U 22097N   22342.51363730  .00002636  00000-0  18364-3 0  9995,2 53400  53.2204  53.5515 0002236  35.3018 324.8122 15.08848117 18809,6917.856,95.437,541.2669999999998,538.174,0.0
53400.0,STARLINK-4520,PAYLOAD,2022-12-09 04:13:29,15.08845795,0.0002158,53.2213,50.5779,35.0243,325.0891,0.00023887,3.516e-05,0.0,0 STARLINK-4520,1 53400U 22097N   22343.17603609  .00003516  00000-0  23887-3 0  9994,2 53400  53.2213  50.5779 0002158  35.0243 325.0891 15.08845795 19398,6917.863,95.437,541.221,538.235,0.0
53400.0,STARLINK-4520,PAYLOAD,2022-12-09 13:45:49,15.08826664,0.0002179,53.2213,48.794,30.4094,329.7024,5.3614e-05,5.65e-06,0.0,0 STARLINK-4520,1 53400U 22097N   22343.57349389  .00000565  00000-0  53614-4 0  9993,2 53400  53.2213  48.7940 0002179  30.4094 329.7024 15.08826664 18968,6917.920999999999,95.438,541.294,538.279,0.0
53400.0,STARLINK-4520,PAYLOAD,2022-12-09 16:56:36,15.08820012,0.0002728,53.2198,48.2009,33.4196,326.6968,-1.2889e-05,-4.94e-06,0.0,0 STARLINK-4520,1 53400U 22097N   22343.70598266 -.00000494  00000-0 -12889-4 0  9990,2 53400  53.2198  48.2009 0002728  33.4196 326.6968 15.08820012 18983,6917.941,95.439,541.694,537.919,0.0
53400.0,STARLINK-4520,PAYLOAD,2022-12-10 12:01:14,15.08836368,0.000309,53.2208,44.6334,34.2018,325.9173,-7.0626e-05,-1.413e-05,0.0,0 STARLINK-4520,1 53400U 22097N   22344.50085988 -.00001413  00000-0 -70626-4 0  9996,2 53400  53.2208  44.6334 0003090  34.2018 325.9173 15.08836368 19107,6917.891,95.438,541.894,537.619,0.0
53400.0,STARLINK-4520,PAYLOAD,2022-12-11 03:55:04,15.08833595,0.0002872,53.2208,41.6594,33.9064,326.2111,0.00022087,3.228e-05,0.0,0 STARLINK-4520,1 53400U 22097N   22345.16325203  .00003228  00000-0  22087-3 0  9997,2 53400  53.2208  41.6594 0002872  33.9064 326.2111 15.08833595 19202,6917.9,95.438,541.752,537.778,0.0
53400.0,STARLINK-4520,PAYLOAD,2022-12-11 10:16:37,15.0883723,0.0002422,53.2206,40.4676,37.6591,322.4571,0.00021738,3.173e-05,0.0,0 STARLINK-4520,1 53400U 22097N   22345.42821150  .00003173  00000-0  21738-3 0  9999,2 53400  53.2206  40.4676 0002422  37.6591 322.4571 15.08837230 19731,6917.889,95.438,541.429,538.078,0.0
